STARLINK-2475           
1 48133U 21027AT  26068.54712537  .00014323  00000+0  49460-3 0  9995
2 48133  53.1606 165.9904 0001148 102.8051 257.3078 15.30212263272498
NUSHSAT1                
1 63211U 25052B   26068.64700493  .00023034  00000+0  74857-3 0  9997
2 63211  97.4095 325.7239 0005501  84.7512 275.4357 15.31903202 54882
